[{"OBJECT_NAME":"O3B FM17","OBJECT_ID":"2019-020C","EPOCH":"2026-03-07T04:12:06.093792","MEAN_MOTION":5.00115488,"ECCENTRICITY":0.0002681,"INCLINATION":0.0391,"RA_OF_ASC_NODE":340.4875,"ARG_OF_PERICENTER":0.5384,"MEAN_ANOMALY":18.9591,"EPHEMERIS_TYPE":0,"CLASSIFICATION_TYPE":"U","NORAD_CAT_ID":44114,"ELEMENT_SET_NO":999,"REV_AT_EPOCH":12641,"BSTAR":0,"MEAN_MOTION_DOT":-2.6e-7,"MEAN_MOTION_DDOT":0},{"OBJECT_NAME":"O3B FM18","OBJECT_ID":"2019-020D","EPOCH":"2026-03-03T12:33:35.684352","MEAN_MOTION":5.00115242,"ECCENTRICITY":0.0002751,"INCLINATION":0.0519,"RA_OF_ASC_NODE":0.0145,"ARG_OF_PERICENTER":341.722,"MEAN_ANOMALY":18.2467,"EPHEMERIS_TYPE":0,"CLASSIFICATION_TYPE":"U","NORAD_CAT_ID":44115,"ELEMENT_SET_NO":999,"REV_AT_EPOCH":12636,"BSTAR":0,"MEAN_MOTION_DOT":-2.8e-7,"MEAN_MOTION_DDOT":0},{"OBJECT_NAME":"SES-17","OBJECT_ID":"2021-095A","EPOCH":"2026-03-07T03:19:51.364416","MEAN_MOTION":1.00269936,"ECCENTRICITY":0.00010107,"INCLINATION":0.0257,"RA_OF_ASC_NODE":64.762,"ARG_OF_PERICENTER":290.7779,"MEAN_ANOMALY":152.1602,"EPHEMERIS_TYPE":0,"CLASSIFICATION_TYPE":"U","NORAD_CAT_ID":49332,"ELEMENT_SET_NO":999,"REV_AT_EPOCH":1683,"BSTAR":0,"MEAN_MOTION_DOT":-2.74e-6,"MEAN_MOTION_DDOT":0},{"OBJECT_NAME":"SES-22","OBJECT_ID":"2022-071A","EPOCH":"2026-03-07T12:17:38.724864","MEAN_MOTION":1.00269907,"ECCENTRICITY":0.00010293,"INCLINATION":0.0174,"RA_OF_ASC_NODE":150.2609,"ARG_OF_PERICENTER":198.4027,"MEAN_ANOMALY":221.967,"EPHEMERIS_TYPE":0,"CLASSIFICATION_TYPE":"U","NORAD_CAT_ID":52933,"ELEMENT_SET_NO":999,"REV_AT_EPOCH":650,"BSTAR":0,"MEAN_MOTION_DOT":0,"MEAN_MOTION_DDOT":0},{"OBJECT_NAME":"SES-20","OBJECT_ID":"2022-123A","EPOCH":"2026-03-07T08:09:21.154752","MEAN_MOTION":1.00272026,"ECCENTRICITY":0.000161,"INCLINATION":0.0161,"RA_OF_ASC_NODE":108.5204,"ARG_OF_PERICENTER":319.2676,"MEAN_ANOMALY":116.4803,"EPHEMERIS_TYPE":0,"CLASSIFICATION_TYPE":"U","NORAD_CAT_ID":53960,"ELEMENT_SET_NO":999,"REV_AT_EPOCH":1251,"BSTAR":0,"MEAN_MOTION_DOT":-1.03e-6,"MEAN_MOTION_DDOT":0},{"OBJECT_NAME":"SES-21","OBJECT_ID":"2022-123B","EPOCH":"2026-03-07T12:33:38.603808","MEAN_MOTION":1.00270929,"ECCENTRICITY":0.00010457,"INCLINATION":0.0267,"RA_OF_ASC_NODE":68.5386,"ARG_OF_PERICENTER":272.7431,"MEAN_ANOMALY":241.3568,"EPHEMERIS_TYPE":0,"CLASSIFICATION_TYPE":"U","NORAD_CAT_ID":53961,"ELEMENT_SET_NO":999,"REV_AT_EPOCH":619,"BSTAR":0,"MEAN_MOTION_DOT":6.8e-7,"MEAN_MOTION_DDOT":0},{"OBJECT_NAME":"O3B MPOWER F1","OBJECT_ID":"2022-174A","EPOCH":"2026-03-07T06:32:02.935680","MEAN_MOTION":5.00103076,"ECCENTRICITY":0.0005215,"INCLINATION":0.0639,"RA_OF_ASC_NODE":350.7406,"ARG_OF_PERICENTER":12.8947,"MEAN_ANOMALY":128.1243,"EPHEMERIS_TYPE":0,"CLASSIFICATION_TYPE":"U","NORAD_CAT_ID":54755,"ELEMENT_SET_NO":999,"REV_AT_EPOCH":6026,"BSTAR":0,"MEAN_MOTION_DOT":-2.6e-7,"MEAN_MOTION_DDOT":0},{"OBJECT_NAME":"O3B MPOWER F2","OBJECT_ID":"2022-174B","EPOCH":"2026-03-03T12:48:44.541504","MEAN_MOTION":5.00690325,"ECCENTRICITY":0.00461256,"INCLINATION":0.1272,"RA_OF_ASC_NODE":326.2177,"ARG_OF_PERICENTER":76.0907,"MEAN_ANOMALY":318.0389,"EPHEMERIS_TYPE":0,"CLASSIFICATION_TYPE":"U","NORAD_CAT_ID":54756,"ELEMENT_SET_NO":999,"REV_AT_EPOCH":6015,"BSTAR":0,"MEAN_MOTION_DOT":-2.8e-7,"MEAN_MOTION_DDOT":0},{"OBJECT_NAME":"SES-18","OBJECT_ID":"2023-038A","EPOCH":"2026-03-07T08:09:21.248928","MEAN_MOTION":1.00272277,"ECCENTRICITY":0.00022745,"INCLINATION":0.0527,"RA_OF_ASC_NODE":271.8063,"ARG_OF_PERICENTER":40.7855,"MEAN_ANOMALY":231.6822,"EPHEMERIS_TYPE":0,"CLASSIFICATION_TYPE":"U","NORAD_CAT_ID":55970,"ELEMENT_SET_NO":999,"REV_AT_EPOCH":1108,"BSTAR":0,"MEAN_MOTION_DOT":-1.03e-6,"MEAN_MOTION_DDOT":0},{"OBJECT_NAME":"SES-19","OBJECT_ID":"2023-038B","EPOCH":"2026-03-07T12:17:38.724864","MEAN_MOTION":1.00271254,"ECCENTRICITY":0.00017929,"INCLINATION":0.0466,"RA_OF_ASC_NODE":290.6169,"ARG_OF_PERICENTER":63.2302,"MEAN_ANOMALY":220.8678,"EPHEMERIS_TYPE":0,"CLASSIFICATION_TYPE":"U","NORAD_CAT_ID":55971,"ELEMENT_SET_NO":999,"REV_AT_EPOCH":1106,"BSTAR":0,"MEAN_MOTION_DOT":8.6e-7,"MEAN_MOTION_DDOT":0},{"OBJECT_NAME":"O3B MPOWER F4","OBJECT_ID":"2023-059A","EPOCH":"2026-02-17T05:46:40.580544","MEAN_MOTION":5.00119607,"ECCENTRICITY":0.00064606,"INCLINATION":0.0593,"RA_OF_ASC_NODE":7.9241,"ARG_OF_PERICENTER":334.3658,"MEAN_ANOMALY":17.6828,"EPHEMERIS_TYPE":0,"CLASSIFICATION_TYPE":"U","NORAD_CAT_ID":56367,"ELEMENT_SET_NO":999,"REV_AT_EPOCH":5260,"BSTAR":0,"MEAN_MOTION_DOT":-1.5e-7,"MEAN_MOTION_DDOT":0},{"OBJECT_NAME":"O3B MPOWER F5","OBJECT_ID":"2023-175A","EPOCH":"2026-03-07T03:56:36.537792","MEAN_MOTION":5.00115759,"ECCENTRICITY":0.00041454,"INCLINATION":0.0402,"RA_OF_ASC_NODE":3.5066,"ARG_OF_PERICENTER":347.7177,"MEAN_ANOMALY":8.7635,"EPHEMERIS_TYPE":0,"CLASSIFICATION_TYPE":"U","NORAD_CAT_ID":58346,"ELEMENT_SET_NO":999,"REV_AT_EPOCH":4433,"BSTAR":0,"MEAN_MOTION_DOT":-2.6e-7,"MEAN_MOTION_DDOT":0},{"OBJECT_NAME":"ASTRA 1P (SES-24)","OBJECT_ID":"2024-115A","EPOCH":"2026-03-07T07:09:44.324352","MEAN_MOTION":1.00264763,"ECCENTRICITY":0.00049005,"INCLINATION":0.0547,"RA_OF_ASC_NODE":341.2315,"ARG_OF_PERICENTER":340.494,"MEAN_ANOMALY":329.9032,"EPHEMERIS_TYPE":0,"CLASSIFICATION_TYPE":"U","NORAD_CAT_ID":60086,"ELEMENT_SET_NO":999,"REV_AT_EPOCH":617,"BSTAR":0,"MEAN_MOTION_DOT":1.17e-6,"MEAN_MOTION_DDOT":0},{"OBJECT_NAME":"O3B MPOWER F7","OBJECT_ID":"2024-244A","EPOCH":"2026-03-07T12:44:46.242528","MEAN_MOTION":5.00115235,"ECCENTRICITY":0.00061301,"INCLINATION":0.0701,"RA_OF_ASC_NODE":4.5205,"ARG_OF_PERICENTER":340.7538,"MEAN_ANOMALY":14.7031,"EPHEMERIS_TYPE":0,"CLASSIFICATION_TYPE":"U","NORAD_CAT_ID":62362,"ELEMENT_SET_NO":999,"REV_AT_EPOCH":2144,"BSTAR":0,"MEAN_MOTION_DOT":-2.5e-7,"MEAN_MOTION_DDOT":0},{"OBJECT_NAME":"O3B MPOWER F8","OBJECT_ID":"2024-244B","EPOCH":"2026-03-07T02:21:32.313888","MEAN_MOTION":5.0011576,"ECCENTRICITY":0.0006607,"INCLINATION":0.0514,"RA_OF_ASC_NODE":316.4457,"ARG_OF_PERICENTER":21.9987,"MEAN_ANOMALY":21.5228,"EPHEMERIS_TYPE":0,"CLASSIFICATION_TYPE":"U","NORAD_CAT_ID":62363,"ELEMENT_SET_NO":999,"REV_AT_EPOCH":1576,"BSTAR":0,"MEAN_MOTION_DOT":-2.6e-7,"MEAN_MOTION_DDOT":0}]
