O3B FM17                
1 44114U 19020C   26066.17507053 -.00000026  00000+0  00000+0 0  9991
2 44114   0.0391 340.4875 0002681   0.5384  18.9591  5.00115488126416
O3B FM18                
1 44115U 19020D   26062.52332968 -.00000028  00000+0  00000+0 0  9990
2 44115   0.0519   0.0145 0002751 341.7220  18.2467  5.00115242126362
SES-17                  
1 49332U 21095A   26066.13878894 -.00000274  00000+0  00000+0 0  9998
2 49332   0.0257  64.7620 0001010 290.7779 152.1602  1.00269936 16836
SES-22                  
1 52933U 22071A   26066.51225376  .00000000  00000+0  00000+0 0  9993
2 52933   0.0174 150.2609 0001029 198.4027 221.9670  1.00269907  6504
SES-20                  
1 53960U 22123A   26066.33982818 -.00000103  00000+0  00000+0 0  9998
2 53960   0.0161 108.5204 0001610 319.2676 116.4803  1.00272026 12517
SES-21                  
1 53961U 22123B   26066.52336347  .00000068  00000+0  00000+0 0  9999
2 53961   0.0267  68.5386 0001045 272.7431 241.3568  1.00270929  6198
O3B MPOWER F1           
1 54755U 22174A   26066.27225620 -.00000026  00000+0  00000+0 0  9995
2 54755   0.0639 350.7406 0005215  12.8947 128.1243  5.00103076 60262
O3B MPOWER F2           
1 54756U 22174B   26062.53384886 -.00000028  00000+0  00000+0 0  9993
2 54756   0.1272 326.2177 0046125  76.0907 318.0389  5.00690325 60150
SES-18                  
1 55970U 23038A   26066.33982927 -.00000103  00000+0  00000+0 0  9998
2 55970   0.0527 271.8063 0002274  40.7855 231.6822  1.00272277 11085
SES-19                  
1 55971U 23038B   26066.51225376  .00000086  00000+0  00000+0 0  9996
2 55971   0.0466 290.6169 0001792  63.2302 220.8678  1.00271254 11066
O3B MPOWER F4           
1 56367U 23059A   26048.24074746 -.00000015  00000+0  00000+0 0  9995
2 56367   0.0593   7.9241 0006460 334.3658  17.6828  5.00119607 52601
O3B MPOWER F5           
1 58346U 23175A   26066.16431178 -.00000026  00000+0  00000+0 0  9992
2 58346   0.0402   3.5066 0004145 347.7177   8.7635  5.00115759 44330
ASTRA 1P (SES-24)       
1 60086U 24115A   26066.29842968  .00000117  00000+0  00000+0 0  9998
2 60086   0.0547 341.2315 0004900 340.4940 329.9032  1.00264763  6175
O3B MPOWER F7           
1 62362U 24244A   26066.53109077 -.00000025  00000+0  00000+0 0  9993
2 62362   0.0701   4.5205 0006130 340.7538  14.7031  5.00115235 21444
O3B MPOWER F8           
1 62363U 24244B   26066.09829067 -.00000026  00000+0  00000+0 0  9994
2 62363   0.0514 316.4457 0006607  21.9987  21.5228  5.00115760 15761
